OBJECT_NAME,OBJECT_ID,EPOCH,MEAN_MOTION,ECCENTRICITY,INCLINATION,RA_OF_ASC_NODE,ARG_OF_PERICENTER,MEAN_ANOMALY,EPHEMERIS_TYPE,CLASSIFICATION_TYPE,NORAD_CAT_ID,ELEMENT_SET_NO,REV_AT_EPOCH,BSTAR,MEAN_MOTION_DOT,MEAN_MOTION_DDOT
ONEWEB-0619,2023-004W,2026-06-19T07:13:53.280768,13.17650158,.00018795,87.9143,5.4277,77.8855,282.2487,0,U,55160,999,16787,.32771923E-3,.14E-5,0
ONEWEB-0620,2023-004X,2026-06-19T15:44:39.058368,13.11414526,.00019277,87.8882,20.5856,93.9156,266.2192,0,U,55161,999,16615,.13724519E-2,.499E-5,0
ONEWEB-0621,2023-004Y,2026-06-19T14:33:50.016960,13.11414993,.00020021,87.8897,20.5843,81.2773,278.8581,0,U,55162,999,16612,-.13215889E-2,-.456E-5,0
ONEWEB-0622,2023-004Z,2026-06-19T14:41:09.722976,13.11415732,.00025549,87.8895,20.5859,87.2634,272.8786,0,U,55163,999,16611,-.1487107E-2,-.514E-5,0
ONEWEB-0623,2023-004AA,2026-06-19T12:34:37.718688,13.17649946,.00024798,87.9129,5.4137,76.1690,283.9718,0,U,55164,999,16789,.95503888E-4,.5E-6,0
ONEWEB-0624,2023-004AB,2026-06-19T22:31:19.394688,13.12930814,.00017993,87.8927,350.0374,92.1817,267.9517,0,U,55165,999,16843,-.16248913E-3,-.46E-6,0
ONEWEB-0625,2023-004AC,2026-06-19T14:09:24.704064,13.17649312,.00017118,87.9131,5.3963,86.7775,273.3553,0,U,55166,999,16789,.6178244E-4,.37E-6,0
ONEWEB-0626,2023-004AD,2026-06-19T13:54:51.465312,13.17645410,.00018487,87.9111,5.3935,107.2808,252.8526,0,U,55167,999,16789,.5307017E-3,.219E-5,0
ONEWEB-0627,2023-004AE,2026-06-19T22:44:33.253440,13.17648672,.00022419,87.9134,5.3251,79.1586,280.9797,0,U,55168,999,16794,-.36092488E-4,-.1E-7,0
ONEWEB-0628,2023-004AF,2026-06-19T22:06:00.894816,13.12443881,.00022705,87.8948,350.1090,76.8613,283.2769,0,U,55169,999,16839,-.13401925E-2,-.469E-5,0
ONEWEB-0629,2023-004AG,2026-06-19T14:51:55.197504,13.17648300,.00018429,87.9129,5.3865,78.7904,281.3435,0,U,55170,999,16790,.77732487E-4,.43E-6,0
ONEWEB-0631,2023-004AH,2026-06-19T21:48:50.269824,13.18685728,.00022737,87.9171,334.8938,101.4565,258.6823,0,U,55171,999,17003,-.29527105E-4,.1E-7,0
ONEWEB-0709,2023-004AJ,2026-06-19T13:40:08.874624,13.11417770,.00019048,87.8885,20.6050,113.9458,246.1870,0,U,55172,999,16618,.16198062E-2,.587E-5,0
ONEWEB-0710,2023-004AK,2026-06-19T22:29:58.193376,13.17650454,.00020076,87.9131,5.3183,86.9331,273.2030,0,U,55173,999,16794,.17739081E-4,.2E-6,0
ONEWEB-0711,2023-004AL,2026-06-19T14:48:29.368512,13.11418026,.00024856,87.8883,20.5832,79.4951,280.6457,0,U,55174,999,16615,-.20735504E-2,-.722E-5,0
ONEWEB-0713,2023-004AM,2026-06-19T15:15:22.131648,13.11418260,.00021921,87.8888,20.5809,82.5096,277.6281,0,U,55175,999,16614,.59260064E-3,.223E-5,0
ONEWEB-0715,2023-004AN,2026-06-19T13:18:09.277056,13.11420477,.00021489,87.8886,20.5978,104.4129,255.7237,0,U,55176,999,16617,.24263234E-4,.21E-6,0
ONEWEB-0716,2023-004AP,2026-06-19T11:24:09.685440,13.17650340,.00016232,87.9132,5.4132,87.1743,272.9574,0,U,55177,999,16788,.36785567E-4,.27E-6,0
ONEWEB-0717,2023-004AQ,2026-06-19T07:21:10.505376,13.17648481,.00024425,87.9143,5.4345,88.8596,271.2816,0,U,55178,999,16791,-.40579807E-4,-.3E-7,0
ONEWEB-0719,2023-004AR,2026-06-19T05:46:24.651840,13.17649860,.00017343,87.9140,5.4280,82.9767,277.1561,0,U,55179,999,16785,.11277953E-4,.17E-6,0
ONEWEB-0530,2023-029A,2026-06-19T17:47:38.990400,13.20771613,.00022769,87.9186,273.9598,90.6935,269.4459,0,U,55796,999,16148,-.21483331E-4,.4E-7,0
ONEWEB-0534,2023-029B,2026-06-19T17:30:40.168512,13.20771943,.00018729,87.9189,273.9626,101.1182,259.0162,0,U,55797,999,16148,-.28391071E-4,.1E-7,0
ONEWEB-0556,2023-029C,2026-06-19T17:40:21.313056,13.20774038,.00014977,87.9186,273.9607,77.0840,283.0460,0,U,55798,999,16148,-.48675185E-4,-.7E-7,0
ONEWEB-0562,2023-029D,2026-06-19T17:20:58.324128,13.20771183,.0002198,87.9186,273.9442,77.6407,282.4973,0,U,55799,999,16148,.20930387E-4,.21E-6,0
ONEWEB-0563,2023-029E,2026-06-19T13:35:31.580736,13.20772443,.00017744,87.9184,274.0059,104.0594,256.0736,0,U,55800,999,16145,.11668345E-3,.6E-6,0
ONEWEB-0564,2023-029F,2026-06-19T18:53:06.381024,13.20770958,.0002119,87.9187,273.9353,89.9113,270.2263,0,U,55801,999,16149,.14619189E-3,.72E-6,0
ONEWEB-0638,2023-029G,2026-06-19T18:03:55.872000,13.14504119,.00017109,87.8958,289.2402,84.3059,275.8266,0,U,55802,999,15973,-.23885677E-3,-.76E-6,0
ONEWEB-0639,2023-029H,2026-06-19T18:16:18.259680,13.19726171,.00014331,87.9172,304.4630,130.4616,229.6642,0,U,55803,999,15924,.12932141E-3,.65E-6,0
ONEWEB-0640,2023-029J,2026-06-19T18:17:37.144608,13.14503409,.0001317,87.8955,289.2291,88.1964,271.9317,0,U,55804,999,15975,.74213553E-4,.4E-6,0
ONEWEB-0641,2023-029K,2026-06-19T14:31:07.185792,13.19725109,.00018191,87.9181,304.4832,105.3464,254.7870,0,U,55805,999,15923,.18983806E-3,.89E-6,0
ONEWEB-0642,2023-029L,2026-06-19T18:02:39.671520,13.19724389,.00016967,87.9173,304.4659,127.1971,232.9317,0,U,55806,999,15924,-.46178666E-3,-.172E-5,0
ONEWEB-0643,2023-029M,2026-06-19T17:34:14.310048,13.14503141,.00020075,87.8959,289.2223,120.8779,239.2549,0,U,55807,999,15972,-.43095849E-3,-.147E-5,0
ONEWEB-0644,2023-029N,2026-06-19T19:45:00.295776,13.19724855,.00017893,87.9172,304.4530,110.5935,249.5390,0,U,55808,999,15925,-.32547272E-4,0,0
ONEWEB-0645,2023-029P,2026-06-19T18:27:40.239072,13.19724635,.00014417,87.9170,304.4607,103.9251,256.2042,0,U,55809,999,15924,.67758095E-4,.4E-6,0
ONEWEB-0646,2023-029Q,2026-06-19T18:52:42.215808,13.19724923,.00018399,87.9174,304.4573,108.4526,251.6807,0,U,55810,999,15923,.574421E-6,.13E-6,0
ONEWEB-0648,2023-029R,2026-06-19T18:38:09.682080,13.14501817,.00011865,87.8965,289.1873,125.5412,234.5829,0,U,55811,999,15973,.94766076E-3,.364E-5,0
ONEWEB-0649,2023-029S,2026-06-19T17:39:54.200736,13.19725434,.00016359,87.9173,304.4652,103.6141,256.5174,0,U,55812,999,15926,.3162038E-4,.26E-6,0
ONEWEB-0650,2023-029T,2026-06-19T19:22:16.208256,13.19706559,.00014664,87.9166,304.4545,126.2485,233.8784,0,U,55813,999,15924,-.5834428E-2,-.2322E-4,0
ONEWEB-0652,2023-029U,2026-06-19T18:10:44.663232,13.14501811,.00020919,87.8965,289.1982,98.5741,261.5626,0,U,55814,999,15970,-.50249827E-3,-.173E-5,0
ONEWEB-0653,2023-029V,2026-06-19T17:47:55.144608,13.14503588,.00018976,87.8967,289.1991,98.3770,261.7575,0,U,55815,999,15973,-.50897442E-3,-.176E-5,0
ONEWEB-0654,2023-029W,2026-06-19T17:41:04.005888,13.14504288,.00021145,87.8967,289.1966,91.8554,268.2818,0,U,55816,999,15975,-.48394343E-3,-.167E-5,0
ONEWEB-0656,2023-029X,2026-06-19T18:43:23.628576,13.20773019,.00022831,87.9201,273.9131,91.2537,268.8857,0,U,55817,999,16149,.12172678E-3,.62E-6,0
ONEWEB-0657,2023-029Y,2026-06-19T15:37:05.694240,13.19725167,.00025734,87.9173,304.4833,101.2688,258.8734,0,U,55818,999,15923,.3942177E-5,.15E-6,0
ONEWEB-0658,2023-029Z,2026-06-19T15:30:16.166880,13.19724921,.00017628,87.9181,304.4601,112.0782,248.0538,0,U,55819,999,15924,.11327018E-3,.58E-6,0
ONEWEB-0660,2023-029AA,2026-06-19T18:58:42.938400,13.14503786,.00015537,87.8977,289.1792,99.4794,260.6511,0,U,55820,999,15974,.43197011E-3,.173E-5,0
ONEWEB-0661,2023-029AB,2026-06-19T17:59:21.355872,13.14503289,.00016399,87.8959,289.2320,96.5666,263.5651,0,U,55821,999,15972,-.45068321E-3,-.154E-5,0
ONEWEB-0662,2023-029AC,2026-06-19T18:49:35.668704,13.14502956,.00015897,87.8955,289.2309,100.9782,259.1527,0,U,55822,999,15977,.64448022E-3,.252E-5,0
ONEWEB-0663,2023-029AD,2026-06-19T17:42:33.973344,13.20869549,.00015879,87.9201,273.9927,108.5945,251.5361,0,U,55823,999,16148,-.12360463E-3,-.37E-6,0
ONEWEB-0664,2023-029AE,2026-06-19T18:24:00.558432,13.20770720,.00017345,87.9186,273.9683,87.5312,272.6020,0,U,55824,999,16148,.38269176E-4,.29E-6,0
ONEWEB-0665,2023-029AF,2026-06-19T14:15:34.079616,13.14503427,.00016022,87.8958,289.2437,104.0910,256.0398,0,U,55825,999,15972,-.33358696E-3,-.111E-5,0
ONEWEB-0666,2023-029AG,2026-06-19T18:14:18.560256,13.20772113,.00027238,87.9186,273.9590,103.8616,256.2821,0,U,55826,999,16149,.14500143E-3,.72E-6,0
ONEWEB-0667,2023-029AH,2026-06-19T18:07:02.601408,13.20771916,.00018229,87.9202,273.9188,99.4042,260.7297,0,U,55827,999,16148,-.16489213E-4,.6E-7,0
ONEWEB-0669,2023-029AJ,2026-06-19T17:59:45.807072,13.20772120,.00021972,87.9193,273.9305,86.8641,273.2743,0,U,55828,999,16148,-.3123613E-4,0,0
ONEWEB-0670,2023-029AK,2026-06-19T17:22:49.290240,13.14503007,.00016151,87.8958,289.2349,90.9026,269.2288,0,U,55829,999,15976,-.15853994E-4,.7E-7,0
ONEWEB-0671,2023-029AL,2026-06-19T15:23:25.912896,13.19724120,.00017269,87.9173,304.4867,98.7528,261.3801,0,U,55830,999,15922,.48753508E-4,.32E-6,0
ONEWEB-0672,2023-029AM,2026-06-19T17:52:28.810560,13.20772520,.0002252,87.9196,273.9250,98.4797,261.6592,0,U,55831,999,16148,-.32188322E-4,0,0
ONEWEB-0673,2023-029AN,2026-06-19T18:28:47.537760,13.19726680,.00017381,87.9180,304.4527,97.9598,262.1732,0,U,55832,999,15924,-.15481901E-3,-.49E-6,0
ONEWEB-0674,2023-029AP,2026-06-19T14:47:31.598016,13.14504203,.00016711,87.8952,289.2333,89.9941,270.1380,0,U,55833,999,15973,.45492683E-3,.181E-5,0
ONEWEB-0675,2023-029AQ,2026-06-19T18:50:25.575936,13.19724961,.00021486,87.9174,304.4593,103.6146,256.5226,0,U,55834,999,15926,.11991826E-3,.61E-6,0
ONEWEB-0720,2023-029AR,2026-06-19T18:39:02.681568,13.19725089,.00016678,87.9172,304.4612,106.4507,253.6809,0,U,55835,999,15918,.21232748E-3,.98E-6,0
ONEWEB-0537,2023-043A,2026-06-19T16:51:35.993088,13.16588160,.00024563,87.9099,228.2721,111.6498,248.4895,0,U,56046,999,15929,.27046894E-2,.1047E-4,0
ONEWEB-0538,2023-043B,2026-06-19T16:42:28.668096,13.16595164,.00021476,87.9097,228.2759,104.3107,255.8262,0,U,56047,999,15930,.35848744E-3,.15E-5,0
ONEWEB-0546,2023-043C,2026-06-19T16:24:14.391360,13.16595022,.00027051,87.9100,228.2781,93.5431,266.6010,0,U,56048,999,15929,.23630981E-3,.103E-5,0
ONEWEB-0547,2023-043D,2026-06-19T17:54:23.778720,13.21825839,.00019614,87.9256,243.4651,103.9028,256.2324,0,U,56049,999,15856,.15135023E-3,.76E-6,0
ONEWEB-0548,2023-043E,2026-06-19T16:59:33.233856,13.16592976,.00019411,87.9094,228.2697,84.1611,275.9742,0,U,56050,999,15929,.99613749E-4,.51E-6,0
